0 DELTA 1 DEB
1 10235U 77065BN  13282.02208317  .00027068  00000-0  21547-2 0   125
2 10235 028.8420 191.8389 0297951 334.1135 138.9580 14.70353519849170
0 DELTA 1 DEB
1 10235U 77065BN  13283.04078948  .00024682  00000-0  19626-2 0   138
2 10235 028.8417 185.5121 0297805 344.3537 131.3339 14.70401643849325
0 DELTA 1 DEB
1 10235U 77065BN  13284.06355556  .00024123  00000-0  19167-2 0   145
2 10235 028.8414 179.1602 0297719 354.6381 145.3580 14.70438944849473
0 DELTA 1 DEB
1 10235U 77065BN  13285.74171082  .00021356  00000-0  16939-2 0   151
2 10235 028.8413 168.7360 0297560 011.5057 029.0147 14.70503616849713
0 DELTA 1 DEB
1 10235U 77065BN  13286.76215998  .00022074  00000-0  17507-2 0   160
2 10235 028.8409 162.3978 0297381 021.7524 031.1817 14.70544898849878
0 DELTA 1 DEB
1 10235U 77065BN  13287.99905093  .00034051  00000-0  27035-2 0   174
2 10235 028.8405 154.7137 0297150 034.1779 099.3847 14.70604256850056
0 DELTA 1 DEB
1 10235U 77065BN  13288.80298809  .00029853  00000-0  23670-2 0   181
2 10235 028.8401 149.7191 0297081 042.2606 035.6437 14.70650509850171
0 DELTA 1 DEB
1 10235U 77065BN  13292.74074696  .00028287  00000-0  22353-2 0   193
2 10235 028.8392 125.2494 0296479 081.8006 005.0246 14.70852985850753
0 DELTA 1 DEB
1 10235U 77065BN  13293.83252203  .00033934  00000-0  26816-2 0   201
2 10235 028.8401 118.4627 0296138 092.7639 026.2539 14.70921865850913
0 DELTA 1 DEB
1 10235U 77065BN  13295.87227090  .00041139  00000-0  32482-2 0   216
2 10235 028.8410 105.7817 0295544 113.2736 027.9382 14.71050930851215
